{
"type": "FeatureCollection",
"name": "estruturas_pontos",
"crs": { "type": "name", "properties": { "name": "urn:ogc:def:crs:OGC:1.3:CRS84" } },
"features": [
{ "type": "Feature", "properties": { "id": null, "Name": "CAPTAÇÃO", "descriptio": null, "timestamp": null, "begin": null, "end": null, "altitudeMo": null, "tessellate": -1, "extrude": 0, "visibility": -1, "drawOrder": null, "icon": null }, "geometry": { "type": "Point", "coordinates": [ -38.193383182991901, -9.33970901327279 ] } },
{ "type": "Feature", "properties": { "id": null, "Name": "CANAL ABERTO SAIDA KM 0.000", "descriptio": null, "timestamp": null, "begin": null, "end": null, "altitudeMo": null, "tessellate": -1, "extrude": 0, "visibility": -1, "drawOrder": null, "icon": null }, "geometry": { "type": "Point", "coordinates": [ -38.161746706363097, -9.34857127845976 ] } },
{ "type": "Feature", "properties": { "id": null, "Name": "PONTE", "descriptio": null, "timestamp": null, "begin": null, "end": null, "altitudeMo": null, "tessellate": -1, "extrude": 0, "visibility": -1, "drawOrder": null, "icon": null }, "geometry": { "type": "Point", "coordinates": [ -38.158822688253302, -9.35656829092134 ] } },
{ "type": "Feature", "properties": { "id": null, "Name": "PONTE", "descriptio": null, "timestamp": null, "begin": null, "end": null, "altitudeMo": null, "tessellate": -1, "extrude": 0, "visibility": -1, "drawOrder": null, "icon": null }, "geometry": { "type": "Point", "coordinates": [ -38.147839951218003, -9.353114423200079 ] } },
{ "type": "Feature", "properties": { "id": null, "Name": "COMPORTA 01 KM 8.129", "descriptio": null, "timestamp": null, "begin": null, "end": null, "altitudeMo": null, "tessellate": -1, "extrude": 0, "visibility": -1, "drawOrder": null, "icon": null }, "geometry": { "type": "Point", "coordinates": [ -38.1148690147526, -9.355927777231649 ] } },
{ "type": "Feature", "properties": { "id": null, "Name": "PONTE", "descriptio": null, "timestamp": null, "begin": null, "end": null, "altitudeMo": null, "tessellate": -1, "extrude": 0, "visibility": -1, "drawOrder": null, "icon": null }, "geometry": { "type": "Point", "coordinates": [ -38.101875104893303, -9.35221427785924 ] } },
{ "type": "Feature", "properties": { "id": null, "Name": "PONTE", "descriptio": null, "timestamp": null, "begin": null, "end": null, "altitudeMo": null, "tessellate": -1, "extrude": 0, "visibility": -1, "drawOrder": null, "icon": null }, "geometry": { "type": "Point", "coordinates": [ -38.099125091103303, -9.33096329658501 ] } },
{ "type": "Feature", "properties": { "id": null, "Name": "COMPORTA 02 KM 16.785", "descriptio": null, "timestamp": null, "begin": null, "end": null, "altitudeMo": null, "tessellate": -1, "extrude": 0, "visibility": -1, "drawOrder": null, "icon": null }, "geometry": { "type": "Point", "coordinates": [ -38.0904957061638, -9.32648272668483 ] } },
{ "type": "Feature", "properties": { "id": null, "Name": "PONTE CANAL 375,00m", "descriptio": null, "timestamp": null, "begin": null, "end": null, "altitudeMo": null, "tessellate": -1, "extrude": 0, "visibility": -1, "drawOrder": null, "icon": null }, "geometry": { "type": "Point", "coordinates": [ -38.086626100183103, -9.329936604474989 ] } },
{ "type": "Feature", "properties": { "id": null, "Name": "PONTE CANAL 157,00m", "descriptio": null, "timestamp": null, "begin": null, "end": null, "altitudeMo": null, "tessellate": -1, "extrude": 0, "visibility": -1, "drawOrder": null, "icon": null }, "geometry": { "type": "Point", "coordinates": [ -38.076390110895701, -9.337470799204279 ] } },
{ "type": "Feature", "properties": { "id": null, "Name": "PONTE", "descriptio": null, "timestamp": null, "begin": null, "end": null, "altitudeMo": null, "tessellate": -1, "extrude": 0, "visibility": -1, "drawOrder": null, "icon": null }, "geometry": { "type": "Point", "coordinates": [ -38.071478891740497, -9.34217886357218 ] } },
{ "type": "Feature", "properties": { "id": null, "Name": "COMPORTA 03 KM 24.802", "descriptio": null, "timestamp": null, "begin": null, "end": null, "altitudeMo": null, "tessellate": -1, "extrude": 0, "visibility": -1, "drawOrder": null, "icon": null }, "geometry": { "type": "Point", "coordinates": [ -38.0362298616093, -9.362541844593389 ] } },
{ "type": "Feature", "properties": { "id": null, "Name": "PONTE", "descriptio": null, "timestamp": null, "begin": null, "end": null, "altitudeMo": null, "tessellate": -1, "extrude": 0, "visibility": -1, "drawOrder": null, "icon": null }, "geometry": { "type": "Point", "coordinates": [ -38.0265941576586, -9.340159570695731 ] } },
{ "type": "Feature", "properties": { "id": null, "Name": "PONTE CANAL 279,00m", "descriptio": null, "timestamp": null, "begin": null, "end": null, "altitudeMo": null, "tessellate": -1, "extrude": 0, "visibility": -1, "drawOrder": null, "icon": null }, "geometry": { "type": "Point", "coordinates": [ -38.0248447841306, -9.324183644325251 ] } },
{ "type": "Feature", "properties": { "id": null, "Name": "PONTE CANAL 233,00m", "descriptio": null, "timestamp": null, "begin": null, "end": null, "altitudeMo": null, "tessellate": -1, "extrude": 0, "visibility": -1, "drawOrder": null, "icon": null }, "geometry": { "type": "Point", "coordinates": [ -38.020016973526502, -9.32169242221028 ] } },
{ "type": "Feature", "properties": { "id": null, "Name": "PONTE", "descriptio": null, "timestamp": null, "begin": null, "end": null, "altitudeMo": null, "tessellate": -1, "extrude": 0, "visibility": -1, "drawOrder": null, "icon": null }, "geometry": { "type": "Point", "coordinates": [ -38.016830422362098, -9.321629376348159 ] } },
{ "type": "Feature", "properties": { "id": null, "Name": "COMPORTA 04 KM 33.578", "descriptio": null, "timestamp": null, "begin": null, "end": null, "altitudeMo": null, "tessellate": -1, "extrude": 0, "visibility": -1, "drawOrder": null, "icon": null }, "geometry": { "type": "Point", "coordinates": [ -38.008984338573903, -9.32079369918694 ] } },
{ "type": "Feature", "properties": { "id": null, "Name": "PONTE CANAL 218,00m", "descriptio": null, "timestamp": null, "begin": null, "end": null, "altitudeMo": null, "tessellate": -1, "extrude": 0, "visibility": -1, "drawOrder": null, "icon": null }, "geometry": { "type": "Point", "coordinates": [ -38.039537914982297, -9.36161027576795 ] } },
{ "type": "Feature", "properties": { "id": null, "Name": "E.T.A.", "descriptio": null, "timestamp": null, "begin": null, "end": null, "altitudeMo": null, "tessellate": -1, "extrude": 0, "visibility": -1, "drawOrder": null, "icon": null }, "geometry": { "type": "Point", "coordinates": [ -37.981861858240002, -9.314205819233219 ] } },
{ "type": "Feature", "properties": { "id": null, "Name": "PONTE CANAL 95,00m", "descriptio": null, "timestamp": null, "begin": null, "end": null, "altitudeMo": null, "tessellate": -1, "extrude": 0, "visibility": -1, "drawOrder": null, "icon": null }, "geometry": { "type": "Point", "coordinates": [ -37.976901527895897, -9.31675093969937 ] } },
{ "type": "Feature", "properties": { "id": null, "Name": "PONTE BR", "descriptio": null, "timestamp": null, "begin": null, "end": null, "altitudeMo": null, "tessellate": -1, "extrude": 0, "visibility": -1, "drawOrder": null, "icon": null }, "geometry": { "type": "Point", "coordinates": [ -37.957814772343397, -9.32095510720738 ] } },
{ "type": "Feature", "properties": { "id": null, "Name": "COMPORTA 05 KM 41.943", "descriptio": null, "timestamp": null, "begin": null, "end": null, "altitudeMo": null, "tessellate": -1, "extrude": 0, "visibility": -1, "drawOrder": null, "icon": null }, "geometry": { "type": "Point", "coordinates": [ -37.961186398429398, -9.33229647624127 ] } },
{ "type": "Feature", "properties": { "id": null, "Name": "PONTE", "descriptio": null, "timestamp": null, "begin": null, "end": null, "altitudeMo": null, "tessellate": -1, "extrude": 0, "visibility": -1, "drawOrder": null, "icon": null }, "geometry": { "type": "Point", "coordinates": [ -37.959723140100401, -9.334471683822111 ] } },
{ "type": "Feature", "properties": { "id": null, "Name": "PONTE", "descriptio": null, "timestamp": null, "begin": null, "end": null, "altitudeMo": null, "tessellate": -1, "extrude": 0, "visibility": -1, "drawOrder": null, "icon": null }, "geometry": { "type": "Point", "coordinates": [ -37.948684660305098, -9.33854495726561 ] } },
{ "type": "Feature", "properties": { "id": null, "Name": "PONTE", "descriptio": null, "timestamp": null, "begin": null, "end": null, "altitudeMo": null, "tessellate": -1, "extrude": 0, "visibility": -1, "drawOrder": null, "icon": null }, "geometry": { "type": "Point", "coordinates": [ -37.935900645865502, -9.34166307570224 ] } },
{ "type": "Feature", "properties": { "id": null, "Name": "PONTE", "descriptio": null, "timestamp": null, "begin": null, "end": null, "altitudeMo": null, "tessellate": -1, "extrude": 0, "visibility": -1, "drawOrder": null, "icon": null }, "geometry": { "type": "Point", "coordinates": [ -37.932326162937301, -9.3493573481721 ] } },
{ "type": "Feature", "properties": { "id": null, "Name": "39", "descriptio": null, "timestamp": null, "begin": null, "end": null, "altitudeMo": null, "tessellate": -1, "extrude": 0, "visibility": -1, "drawOrder": null, "icon": null }, "geometry": { "type": "Point", "coordinates": [ -37.927178939483497, -9.35513589357252 ] } },
{ "type": "Feature", "properties": { "id": null, "Name": "COMPORTA 06 KM 49.807", "descriptio": null, "timestamp": null, "begin": null, "end": null, "altitudeMo": null, "tessellate": -1, "extrude": 0, "visibility": -1, "drawOrder": null, "icon": null }, "geometry": { "type": "Point", "coordinates": [ -37.9201981718873, -9.361031851700449 ] } },
{ "type": "Feature", "properties": { "id": null, "Name": "DERIVACAO", "descriptio": null, "timestamp": null, "begin": null, "end": null, "altitudeMo": null, "tessellate": -1, "extrude": 0, "visibility": -1, "drawOrder": null, "icon": null }, "geometry": { "type": "Point", "coordinates": [ -37.912527554345402, -9.359272088635841 ] } },
{ "type": "Feature", "properties": { "id": null, "Name": "PONTE", "descriptio": null, "timestamp": null, "begin": null, "end": null, "altitudeMo": null, "tessellate": -1, "extrude": 0, "visibility": -1, "drawOrder": null, "icon": null }, "geometry": { "type": "Point", "coordinates": [ -37.903408979824, -9.35759812854999 ] } },
{ "type": "Feature", "properties": { "id": null, "Name": "PONTE", "descriptio": null, "timestamp": null, "begin": null, "end": null, "altitudeMo": null, "tessellate": -1, "extrude": 0, "visibility": -1, "drawOrder": null, "icon": null }, "geometry": { "type": "Point", "coordinates": [ -37.900533984257599, -9.356847677518189 ] } },
{ "type": "Feature", "properties": { "id": null, "Name": "PONTE", "descriptio": null, "timestamp": null, "begin": null, "end": null, "altitudeMo": null, "tessellate": -1, "extrude": 0, "visibility": -1, "drawOrder": null, "icon": null }, "geometry": { "type": "Point", "coordinates": [ -37.8975500406072, -9.35889125053988 ] } },
{ "type": "Feature", "properties": { "id": null, "Name": "PONTE CANAL 498,00m", "descriptio": null, "timestamp": null, "begin": null, "end": null, "altitudeMo": null, "tessellate": -1, "extrude": 0, "visibility": -1, "drawOrder": null, "icon": null }, "geometry": { "type": "Point", "coordinates": [ -37.891089404716404, -9.35465693560938 ] } },
{ "type": "Feature", "properties": { "id": null, "Name": "COMPORTA 07 KM 57.769", "descriptio": null, "timestamp": null, "begin": null, "end": null, "altitudeMo": null, "tessellate": -1, "extrude": 0, "visibility": -1, "drawOrder": null, "icon": null }, "geometry": { "type": "Point", "coordinates": [ -37.859550691585298, -9.34554090289288 ] } },
{ "type": "Feature", "properties": { "id": null, "Name": "PONTE CANAL 278,00m", "descriptio": null, "timestamp": null, "begin": null, "end": null, "altitudeMo": null, "tessellate": -1, "extrude": 0, "visibility": -1, "drawOrder": null, "icon": null }, "geometry": { "type": "Point", "coordinates": [ -37.851599715766497, -9.33788283529638 ] } },
{ "type": "Feature", "properties": { "id": null, "Name": "PONTE", "descriptio": null, "timestamp": null, "begin": null, "end": null, "altitudeMo": null, "tessellate": -1, "extrude": 0, "visibility": -1, "drawOrder": null, "icon": null }, "geometry": { "type": "Point", "coordinates": [ -37.843658919084298, -9.338291165278299 ] } },
{ "type": "Feature", "properties": { "id": null, "Name": "PONTE", "descriptio": null, "timestamp": null, "begin": null, "end": null, "altitudeMo": null, "tessellate": -1, "extrude": 0, "visibility": -1, "drawOrder": null, "icon": null }, "geometry": { "type": "Point", "coordinates": [ -37.8255090645983, -9.33401757013606 ] } },
{ "type": "Feature", "properties": { "id": null, "Name": "PONTE CANAL", "descriptio": null, "timestamp": null, "begin": null, "end": null, "altitudeMo": null, "tessellate": -1, "extrude": 0, "visibility": -1, "drawOrder": null, "icon": null }, "geometry": { "type": "Point", "coordinates": [ -37.809920221490003, -9.331813494647941 ] } },
{ "type": "Feature", "properties": { "id": null, "Name": "COMPORTA 08 KM 65.090", "descriptio": null, "timestamp": null, "begin": null, "end": null, "altitudeMo": null, "tessellate": -1, "extrude": 0, "visibility": -1, "drawOrder": null, "icon": null }, "geometry": { "type": "Point", "coordinates": [ -37.805658089460202, -9.33216093111694 ] } },
{ "type": "Feature", "properties": { "id": null, "Name": "PONTE", "descriptio": null, "timestamp": null, "begin": null, "end": null, "altitudeMo": null, "tessellate": -1, "extrude": 0, "visibility": -1, "drawOrder": null, "icon": null }, "geometry": { "type": "Point", "coordinates": [ -37.8040306667599, -9.331486277359041 ] } },
{ "type": "Feature", "properties": { "id": null, "Name": "PONTE", "descriptio": null, "timestamp": null, "begin": null, "end": null, "altitudeMo": null, "tessellate": -1, "extrude": 0, "visibility": -1, "drawOrder": null, "icon": null }, "geometry": { "type": "Point", "coordinates": [ -37.794852565061397, -9.32904081468126 ] } },
{ "type": "Feature", "properties": { "id": null, "Name": "PONTE CANAL 186,00m", "descriptio": null, "timestamp": null, "begin": null, "end": null, "altitudeMo": null, "tessellate": -1, "extrude": 0, "visibility": -1, "drawOrder": null, "icon": null }, "geometry": { "type": "Point", "coordinates": [ -37.780190644182298, -9.32749876010798 ] } },
{ "type": "Feature", "properties": { "id": null, "Name": "COMPORTA 09 KM 74.657", "descriptio": null, "timestamp": null, "begin": null, "end": null, "altitudeMo": null, "tessellate": -1, "extrude": 0, "visibility": -1, "drawOrder": null, "icon": null }, "geometry": { "type": "Point", "coordinates": [ -37.7229688599528, -9.31783021586104 ] } },
{ "type": "Feature", "properties": { "id": null, "Name": "PONTE", "descriptio": null, "timestamp": null, "begin": null, "end": null, "altitudeMo": null, "tessellate": -1, "extrude": 0, "visibility": -1, "drawOrder": null, "icon": null }, "geometry": { "type": "Point", "coordinates": [ -37.716833444396897, -9.3176544399159 ] } },
{ "type": "Feature", "properties": { "id": null, "Name": "PONTE", "descriptio": null, "timestamp": null, "begin": null, "end": null, "altitudeMo": null, "tessellate": -1, "extrude": 0, "visibility": -1, "drawOrder": null, "icon": null }, "geometry": { "type": "Point", "coordinates": [ -37.711156952391299, -9.316467431791921 ] } },
{ "type": "Feature", "properties": { "id": null, "Name": "PONTE", "descriptio": null, "timestamp": null, "begin": null, "end": null, "altitudeMo": null, "tessellate": -1, "extrude": 0, "visibility": -1, "drawOrder": null, "icon": null }, "geometry": { "type": "Point", "coordinates": [ -37.698438333795998, -9.31661108876116 ] } },
{ "type": "Feature", "properties": { "id": null, "Name": "PONTE CANAL 740,00m", "descriptio": null, "timestamp": null, "begin": null, "end": null, "altitudeMo": null, "tessellate": -1, "extrude": 0, "visibility": -1, "drawOrder": null, "icon": null }, "geometry": { "type": "Point", "coordinates": [ -37.691202642325401, -9.3161143600591 ] } },
{ "type": "Feature", "properties": { "id": null, "Name": "PONTE", "descriptio": null, "timestamp": null, "begin": null, "end": null, "altitudeMo": null, "tessellate": -1, "extrude": 0, "visibility": -1, "drawOrder": null, "icon": null }, "geometry": { "type": "Point", "coordinates": [ -37.682729473559398, -9.315459188778631 ] } },
{ "type": "Feature", "properties": { "id": null, "Name": "PONTE", "descriptio": null, "timestamp": null, "begin": null, "end": null, "altitudeMo": null, "tessellate": -1, "extrude": 0, "visibility": -1, "drawOrder": null, "icon": null }, "geometry": { "type": "Point", "coordinates": [ -37.673857047328497, -9.321710896636681 ] } },
{ "type": "Feature", "properties": { "id": null, "Name": "TUB. SIFÃO PARALELO 235,00m", "descriptio": null, "timestamp": null, "begin": null, "end": null, "altitudeMo": null, "tessellate": -1, "extrude": 0, "visibility": -1, "drawOrder": null, "icon": null }, "geometry": { "type": "Point", "coordinates": [ -37.626711574306903, -9.36737735828984 ] } },
{ "type": "Feature", "properties": { "id": null, "Name": "PONTE", "descriptio": null, "timestamp": null, "begin": null, "end": null, "altitudeMo": null, "tessellate": -1, "extrude": 0, "visibility": -1, "drawOrder": null, "icon": null }, "geometry": { "type": "Point", "coordinates": [ -37.626147150015797, -9.367357085734801 ] } },
{ "type": "Feature", "properties": { "id": null, "Name": "COMPORTA 11 KM 89.649", "descriptio": null, "timestamp": null, "begin": null, "end": null, "altitudeMo": null, "tessellate": -1, "extrude": 0, "visibility": -1, "drawOrder": null, "icon": null }, "geometry": { "type": "Point", "coordinates": [ -37.621573506743502, -9.37042278735068 ] } },
{ "type": "Feature", "properties": { "id": null, "Name": "PONTE", "descriptio": null, "timestamp": null, "begin": null, "end": null, "altitudeMo": null, "tessellate": -1, "extrude": 0, "visibility": -1, "drawOrder": null, "icon": null }, "geometry": { "type": "Point", "coordinates": [ -37.6059694453891, -9.390489997508899 ] } },
{ "type": "Feature", "properties": { "id": null, "Name": "PONTE", "descriptio": null, "timestamp": null, "begin": null, "end": null, "altitudeMo": null, "tessellate": -1, "extrude": 0, "visibility": -1, "drawOrder": null, "icon": null }, "geometry": { "type": "Point", "coordinates": [ -37.6040281259449, -9.402318752209981 ] } },
{ "type": "Feature", "properties": { "id": null, "Name": "PONTE", "descriptio": null, "timestamp": null, "begin": null, "end": null, "altitudeMo": null, "tessellate": -1, "extrude": 0, "visibility": -1, "drawOrder": null, "icon": null }, "geometry": { "type": "Point", "coordinates": [ -37.6125268063535, -9.4243884715132 ] } },
{ "type": "Feature", "properties": { "id": null, "Name": "COMPORTA 12 KM 97.566", "descriptio": null, "timestamp": null, "begin": null, "end": null, "altitudeMo": null, "tessellate": -1, "extrude": 0, "visibility": -1, "drawOrder": null, "icon": null }, "geometry": { "type": "Point", "coordinates": [ -37.616257677678597, -9.427359997706279 ] } },
{ "type": "Feature", "properties": { "id": null, "Name": "PONTE", "descriptio": null, "timestamp": null, "begin": null, "end": null, "altitudeMo": null, "tessellate": -1, "extrude": 0, "visibility": -1, "drawOrder": null, "icon": null }, "geometry": { "type": "Point", "coordinates": [ -37.616746289425102, -9.43500271406417 ] } },
{ "type": "Feature", "properties": { "id": null, "Name": "PONTE", "descriptio": null, "timestamp": null, "begin": null, "end": null, "altitudeMo": null, "tessellate": -1, "extrude": 0, "visibility": -1, "drawOrder": null, "icon": null }, "geometry": { "type": "Point", "coordinates": [ -37.604128292082798, -9.44763925770927 ] } },
{ "type": "Feature", "properties": { "id": null, "Name": "PONTE", "descriptio": null, "timestamp": null, "begin": null, "end": null, "altitudeMo": null, "tessellate": -1, "extrude": 0, "visibility": -1, "drawOrder": null, "icon": null }, "geometry": { "type": "Point", "coordinates": [ -37.589705035604197, -9.45160548423133 ] } },
{ "type": "Feature", "properties": { "id": null, "Name": "PONTE CANAL 160,00m", "descriptio": null, "timestamp": null, "begin": null, "end": null, "altitudeMo": null, "tessellate": -1, "extrude": 0, "visibility": -1, "drawOrder": null, "icon": null }, "geometry": { "type": "Point", "coordinates": [ -37.5775855177286, -9.451158768761641 ] } },
{ "type": "Feature", "properties": { "id": null, "Name": "COMPORTA 13 KM 105.212", "descriptio": null, "timestamp": null, "begin": null, "end": null, "altitudeMo": null, "tessellate": -1, "extrude": 0, "visibility": -1, "drawOrder": null, "icon": null }, "geometry": { "type": "Point", "coordinates": [ -37.570511064727903, -9.450768369652121 ] } },
{ "type": "Feature", "properties": { "id": null, "Name": "PONTE CANAL 417,00m", "descriptio": null, "timestamp": null, "begin": null, "end": null, "altitudeMo": null, "tessellate": -1, "extrude": 0, "visibility": -1, "drawOrder": null, "icon": null }, "geometry": { "type": "Point", "coordinates": [ -37.565549258884701, -9.452619875844579 ] } },
{ "type": "Feature", "properties": { "id": null, "Name": "PONTE", "descriptio": null, "timestamp": null, "begin": null, "end": null, "altitudeMo": null, "tessellate": -1, "extrude": 0, "visibility": -1, "drawOrder": null, "icon": null }, "geometry": { "type": "Point", "coordinates": [ -37.560005786126702, -9.46512055997613 ] } },
{ "type": "Feature", "properties": { "id": null, "Name": "PONTE", "descriptio": null, "timestamp": null, "begin": null, "end": null, "altitudeMo": null, "tessellate": -1, "extrude": 0, "visibility": -1, "drawOrder": null, "icon": null }, "geometry": { "type": "Point", "coordinates": [ -37.544822905548997, -9.46973267021891 ] } },
{ "type": "Feature", "properties": { "id": null, "Name": "PONTE", "descriptio": null, "timestamp": null, "begin": null, "end": null, "altitudeMo": null, "tessellate": -1, "extrude": 0, "visibility": -1, "drawOrder": null, "icon": null }, "geometry": { "type": "Point", "coordinates": [ -37.537674165520301, -9.46746954673065 ] } },
{ "type": "Feature", "properties": { "id": null, "Name": "COMPORTA 14 KM 112.753", "descriptio": null, "timestamp": null, "begin": null, "end": null, "altitudeMo": null, "tessellate": -1, "extrude": 0, "visibility": -1, "drawOrder": null, "icon": null }, "geometry": { "type": "Point", "coordinates": [ -37.524344009331998, -9.481754325396 ] } },
{ "type": "Feature", "properties": { "id": null, "Name": "PONTE", "descriptio": null, "timestamp": null, "begin": null, "end": null, "altitudeMo": null, "tessellate": -1, "extrude": 0, "visibility": -1, "drawOrder": null, "icon": null }, "geometry": { "type": "Point", "coordinates": [ -37.521374205590597, -9.48405654757665 ] } },
{ "type": "Feature", "properties": { "id": null, "Name": "PONTE", "descriptio": null, "timestamp": null, "begin": null, "end": null, "altitudeMo": null, "tessellate": -1, "extrude": 0, "visibility": -1, "drawOrder": null, "icon": null }, "geometry": { "type": "Point", "coordinates": [ -37.513099780541403, -9.48727661100806 ] } },
{ "type": "Feature", "properties": { "id": null, "Name": "PONTE", "descriptio": null, "timestamp": null, "begin": null, "end": null, "altitudeMo": null, "tessellate": -1, "extrude": 0, "visibility": -1, "drawOrder": null, "icon": null }, "geometry": { "type": "Point", "coordinates": [ -37.960707723191, -9.3186755534316 ] } },
{ "type": "Feature", "properties": { "id": null, "Name": "PONTE BR", "descriptio": null, "timestamp": null, "begin": null, "end": null, "altitudeMo": null, "tessellate": -1, "extrude": 0, "visibility": -1, "drawOrder": null, "icon": null }, "geometry": { "type": "Point", "coordinates": [ -38.047875681640399, -9.352806087541721 ] } },
{ "type": "Feature", "properties": { "id": null, "Name": "PONTE BR", "descriptio": null, "timestamp": null, "begin": null, "end": null, "altitudeMo": null, "tessellate": -1, "extrude": 0, "visibility": -1, "drawOrder": null, "icon": null }, "geometry": { "type": "Point", "coordinates": [ -38.024332697459499, -9.344620942287261 ] } },
{ "type": "Feature", "properties": { "id": null, "Name": "PONTE", "descriptio": null, "timestamp": null, "begin": null, "end": null, "altitudeMo": null, "tessellate": -1, "extrude": 0, "visibility": -1, "drawOrder": null, "icon": null }, "geometry": { "type": "Point", "coordinates": [ -37.606241226394303, -9.413585203154289 ] } },
{ "type": "Feature", "properties": { "id": null, "Name": "PONTE CANAL 278,00m", "descriptio": null, "timestamp": null, "begin": null, "end": null, "altitudeMo": null, "tessellate": -1, "extrude": 0, "visibility": -1, "drawOrder": null, "icon": null }, "geometry": { "type": "Point", "coordinates": [ -37.532576570052001, -9.47547757967004 ] } },
{ "type": "Feature", "properties": { "id": null, "Name": "TUB. SIFAO PARALELO 158,00m", "descriptio": null, "timestamp": null, "begin": null, "end": null, "altitudeMo": null, "tessellate": -1, "extrude": 0, "visibility": -1, "drawOrder": null, "icon": null }, "geometry": { "type": "Point", "coordinates": [ -37.483391197209798, -9.489283030675599 ] } },
{ "type": "Feature", "properties": { "id": null, "Name": "COMPORTA 15 KM 118.681", "descriptio": null, "timestamp": null, "begin": null, "end": null, "altitudeMo": null, "tessellate": -1, "extrude": 0, "visibility": -1, "drawOrder": null, "icon": null }, "geometry": { "type": "Point", "coordinates": [ -37.475928620781403, -9.494196475620731 ] } },
{ "type": "Feature", "properties": { "id": null, "Name": "PONTE AL", "descriptio": null, "timestamp": null, "begin": null, "end": null, "altitudeMo": null, "tessellate": -1, "extrude": 0, "visibility": -1, "drawOrder": null, "icon": null }, "geometry": { "type": "Point", "coordinates": [ -37.460561344960702, -9.492763881928131 ] } },
{ "type": "Feature", "properties": { "id": null, "Name": "INICIO TUNEL", "descriptio": null, "timestamp": null, "begin": null, "end": null, "altitudeMo": null, "tessellate": -1, "extrude": 0, "visibility": -1, "drawOrder": null, "icon": null }, "geometry": { "type": "Point", "coordinates": [ -37.453445494172698, -9.49340158428873 ] } },
{ "type": "Feature", "properties": { "id": null, "Name": "FINAL TUNEL", "descriptio": null, "timestamp": null, "begin": null, "end": null, "altitudeMo": null, "tessellate": -1, "extrude": 0, "visibility": -1, "drawOrder": null, "icon": null }, "geometry": { "type": "Point", "coordinates": [ -37.446838819535799, -9.496247568271031 ] } },
{ "type": "Feature", "properties": { "id": null, "Name": "PONTE", "descriptio": null, "timestamp": null, "begin": null, "end": null, "altitudeMo": null, "tessellate": -1, "extrude": 0, "visibility": -1, "drawOrder": null, "icon": null }, "geometry": { "type": "Point", "coordinates": [ -37.439292428112999, -9.49943279888109 ] } },
{ "type": "Feature", "properties": { "id": null, "Name": "FINAL CANAL KM 123.400", "descriptio": null, "timestamp": null, "begin": null, "end": null, "altitudeMo": null, "tessellate": -1, "extrude": 0, "visibility": -1, "drawOrder": null, "icon": null }, "geometry": { "type": "Point", "coordinates": [ -37.437777474419001, -9.500113197266961 ] } },
{ "type": "Feature", "properties": { "id": null, "Name": "PONTE", "descriptio": null, "timestamp": null, "begin": null, "end": null, "altitudeMo": null, "tessellate": -1, "extrude": 0, "visibility": -1, "drawOrder": null, "icon": null }, "geometry": { "type": "Point", "coordinates": [ -38.1296649739812, -9.36016075411032 ] } },
{ "type": "Feature", "properties": { "id": null, "Name": "FINAL TUNEL", "descriptio": null, "timestamp": null, "begin": null, "end": null, "altitudeMo": null, "tessellate": -1, "extrude": 0, "visibility": -1, "drawOrder": null, "icon": null }, "geometry": { "type": "Point", "coordinates": [ -37.747406456901501, -9.31968939129831 ] } },
{ "type": "Feature", "properties": { "id": null, "Name": "INICIO TUNEL", "descriptio": null, "timestamp": null, "begin": null, "end": null, "altitudeMo": null, "tessellate": -1, "extrude": 0, "visibility": -1, "drawOrder": null, "icon": null }, "geometry": { "type": "Point", "coordinates": [ -37.771650656376103, -9.324919273465371 ] } },
{ "type": "Feature", "properties": { "id": null, "Name": "CANAL SUBTERREO 725,00m", "descriptio": null, "timestamp": null, "begin": null, "end": null, "altitudeMo": null, "tessellate": -1, "extrude": 0, "visibility": -1, "drawOrder": null, "icon": null }, "geometry": { "type": "Point", "coordinates": [ -37.450069106098397, -9.494869478827381 ] } },
{ "type": "Feature", "properties": { "id": null, "Name": "PONTE AL", "descriptio": null, "timestamp": null, "begin": null, "end": null, "altitudeMo": null, "tessellate": -1, "extrude": 0, "visibility": -1, "drawOrder": null, "icon": null }, "geometry": { "type": "Point", "coordinates": [ -37.981093011987703, -9.31560537501929 ] } },
{ "type": "Feature", "properties": { "id": null, "Name": "PONTE", "descriptio": null, "timestamp": null, "begin": null, "end": null, "altitudeMo": null, "tessellate": -1, "extrude": 0, "visibility": -1, "drawOrder": null, "icon": null }, "geometry": { "type": "Point", "coordinates": [ -37.635233032070801, -9.34188339409585 ] } },
{ "type": "Feature", "properties": { "id": null, "Name": "PONTE", "descriptio": null, "timestamp": null, "begin": null, "end": null, "altitudeMo": null, "tessellate": -1, "extrude": 0, "visibility": -1, "drawOrder": null, "icon": null }, "geometry": { "type": "Point", "coordinates": [ -37.483663067340302, -9.489591630892351 ] } },
{ "type": "Feature", "properties": { "id": null, "Name": "E.T.A.", "descriptio": null, "timestamp": null, "begin": null, "end": null, "altitudeMo": null, "tessellate": -1, "extrude": 0, "visibility": -1, "drawOrder": null, "icon": null }, "geometry": { "type": "Point", "coordinates": [ -37.728301741379397, -9.31587796282083 ] } },
{ "type": "Feature", "properties": { "id": null, "Name": "PONTE", "descriptio": null, "timestamp": null, "begin": null, "end": null, "altitudeMo": null, "tessellate": -1, "extrude": 0, "visibility": -1, "drawOrder": null, "icon": null }, "geometry": { "type": "Point", "coordinates": [ -37.728818957680097, -9.316350034689471 ] } },
{ "type": "Feature", "properties": { "id": null, "Name": "CANAL SUBTERREO 858,00m", "descriptio": null, "timestamp": null, "begin": null, "end": null, "altitudeMo": null, "tessellate": -1, "extrude": 0, "visibility": -1, "drawOrder": null, "icon": null }, "geometry": { "type": "Point", "coordinates": [ -37.479529131780097, -9.491454391926339 ] } },
{ "type": "Feature", "properties": { "id": null, "Name": "CANAL SUBTERREO 1.677,00m", "descriptio": null, "timestamp": null, "begin": null, "end": null, "altitudeMo": null, "tessellate": -1, "extrude": 0, "visibility": -1, "drawOrder": null, "icon": null }, "geometry": { "type": "Point", "coordinates": [ -37.491065389535201, -9.48591646303213 ] } },
{ "type": "Feature", "properties": { "id": null, "Name": "CANAL SUBTERREO 1.325,00m", "descriptio": null, "timestamp": null, "begin": null, "end": null, "altitudeMo": null, "tessellate": -1, "extrude": 0, "visibility": -1, "drawOrder": null, "icon": null }, "geometry": { "type": "Point", "coordinates": [ -37.631923126519801, -9.36181832392629 ] } },
{ "type": "Feature", "properties": { "id": null, "Name": "CANAL SUBTERREO 471,00m", "descriptio": null, "timestamp": null, "begin": null, "end": null, "altitudeMo": null, "tessellate": -1, "extrude": 0, "visibility": -1, "drawOrder": null, "icon": null }, "geometry": { "type": "Point", "coordinates": [ -37.623828382034098, -9.36891242736433 ] } },
{ "type": "Feature", "properties": { "id": null, "Name": "CANAL SUBTERREO 3.723,33m", "descriptio": null, "timestamp": null, "begin": null, "end": null, "altitudeMo": null, "tessellate": -1, "extrude": 0, "visibility": -1, "drawOrder": null, "icon": null }, "geometry": { "type": "Point", "coordinates": [ -38.176741688633797, -9.34192282158425 ] } },
{ "type": "Feature", "properties": { "id": null, "Name": "CANAL SUBTERREO 2.643,00m", "descriptio": null, "timestamp": null, "begin": null, "end": null, "altitudeMo": null, "tessellate": -1, "extrude": 0, "visibility": -1, "drawOrder": null, "icon": null }, "geometry": { "type": "Point", "coordinates": [ -37.759524255637999, -9.32220051922792 ] } }
]
}
